#dP2023  9 27  6  0  0.00000000      96 __u+U ITR00 EXT  IAC
## 2281 280800.00000000   900.00000000 60214 0.2500000000000
+  120   C06C07C08C09C10C11C12C13C14C16C19C20C21C22C23C24C25
+        C26C27C28C29C30C32C33C34C35C36C37C38C39C40C41C42C43
+        C44C45C46E02E03E04E05E07E08E09E10E11E12E13E14E15E18
+        E19E21E24E25E26E27E30E31E33E34E36G01G02G03G04G05G06
+        G07G08G09G10G11G12G13G14G15G16G17G18G19G20G21G22G23
+        G24G25G26G27G28G29G30G31G32J02J03J04R01R02R03R04R05
+        R07R08R09R11R12R13R14R15R16R17R18R19R20R21R22R24R25
+        R26  0  0  0  0  0  0  0  0  0  0  0  0  0  0  0  0
++        13  8  9 11  8  9  9  9  9  9  8 10  9  9 10 10 10
++         8  8  9  8  9  9  8  9  9  9  8 11 11  9  8  9  9
++        10 11  9  8 10  8  9  9  9  8  9  9  8  9 10  9  9
++         7  9  9  9  9  9  9  9  9  7  9  9  9  9  9  7  9
++         9  8  9  8  9  9  8  9  8  7  8  9  8  9  9  9  8
++        10  8  8  9 10  8  9  8  7  9  9  9  9  8  8  8  9
++        10 10  9  9  9  8  8  8  7 11  8  9  9  8  7  9 10
++        10  0  0  0  0  0  0  0  0  0  0  0  0  0  0  0  0
%c M  cc GPS ccc cccc cccc cccc cccc ccccc ccccc ccccc ccccc
%c cc cc ccc ccc cccc cccc cccc cccc ccccc ccccc ccccc ccccc
%f  0.0000000  0.000000000  0.00000000000  0.000000000000000
%f  0.0000000  0.000000000  0.00000000000  0.000000000000000
%i    0    0    0    0      0      0      0      0         0
%i    0    0    0    0      0      0      0      0         0
/* IAC                                ULTRA-RAPID PREDICTION
/* S/V CLOCKS ARE ALIGNED TO GNSS TIME                      
/* G:C1WC2W R:C1PC2P E:C1XC5X C:C2IC6I J:C1CC2S             
/* PCV:IGS20_2280 OL/AL:FES2004  NONE     YN ORB:CoN CLK:CoN
*  2023 09 28  2 45  0.00000000
PC06 -15830.395457  37616.781207 -11166.989102     33.180388
PC07  -3770.697415  33401.962899 -25244.458553    -72.767692
PC08 -12332.836110  19255.450869  35365.593287    324.332646
PC09 -12000.785233  36657.342674 -17274.150650    111.170990
PC10   3646.460207  36334.795931 -20272.827916   -192.986631
PC11 -12851.190334  24099.620352  -5580.987370    175.200957
PC12 -17246.788103   8558.792977 -20151.114687    919.935596
PC13  -4613.172169  21767.424937  35930.509744    358.910979
PC14  -6515.771429  15505.886004  22263.452808    485.505900
PC16 -19962.291939  36855.439074  -5687.173463   -100.291030
PC19  -2425.771379 -21123.806870 -18068.260469   -970.708316
PC20  12941.484113  -8978.638951 -23033.542829    248.559693
PC21 -21815.904684  -9754.537196  14430.938342   -970.368470
PC22 -17216.731552 -21841.298871  -2446.984404   -289.200456
PC23  11922.863861  13315.540984 -21424.806255   -859.282563
PC24 -24741.987434  10566.528793  -7368.728992    437.805724
PC25  -7728.959751  17071.274092 -20679.428280    220.785229
PC26 -26324.748707   -659.590810   9170.373867   -183.924072
PC27  16300.236993   1053.041891  22608.734558    205.517413
PC28   7909.937232  18521.133752  19320.279982    154.387392
PC29   5760.671090 -27121.293113  -3192.052832    180.373286
PC30  15848.758432 -17912.403168  14361.016005     -5.612586
PC32  21900.298563   9674.299580 -14325.135282   -528.426129
PC33   2409.752392  21058.776756  18138.848817   -962.598552
PC34 -15463.080878  19102.978957 -13240.104727    269.061592
PC35  -8643.653061 -18250.862138 -19256.588432    537.139375
PC36   9060.724300 -16845.956080  20347.603044   -205.353359
PC37  26047.386420   1811.213416  -9873.088205   -838.298700
PC38 -20850.103137  19772.420931  30812.230707    107.593382
PC39 -20929.156351  36758.729438   -145.599829     -5.000979
PC40  -7180.288252  29330.360071 -29284.906589    -38.112705
PC41  16841.395985  22020.389299   3218.349544   -875.658109
PC42 -14105.945129   7641.635131  22869.192846   -535.740052
PC43  -6400.275889  27070.504113   2317.387464     41.607694
PC44 -16438.336627   -675.461592 -22553.572121    244.840750
PC45 -12422.986838 -12993.248024  21340.668121    -30.304803
PC46  24156.399087 -11136.991534   8507.182098    -87.643239
PE02   3911.027745  18387.499520 -22865.473121     66.076844
PE03   2473.723230  29317.667732   3188.266639    -60.036213
PE04 -13903.672935 -21631.895925  14660.691157   -221.893338
PE05 -10410.166205  19971.575342  19204.390025     22.396675
PE07  17280.726342   1553.034781 -23982.970110    -78.050700
PE08  13645.396338  22001.472417 -14348.470981   -152.996775
PE09 -17155.831426  -1750.370097  24054.558641   -171.896561
PE10 -19717.916467  -2078.160608 -21980.162390   -567.014113
PE11 -24393.750979   7258.913946 -15125.697755   3005.141725
PE12 -12620.809779 -10314.785418 -24712.356032   -714.812518
PE13  24169.909738  -6721.175830  15716.940197    -19.729819
PE14 -17194.205846   9473.621369 -21352.729187    352.903562
PE15  12202.498861  10589.553867  24806.686908    -56.749604
PE18   7979.975100 -25112.087749  11616.637378    581.376765
PE19   -644.063445 -29055.291406  -5607.006692  -1540.155422
PE21  16195.001218 -10372.785647  22506.016114   -555.169828
PE24 -27971.669350  -4540.226877  -8524.763927   -345.521247
PE25 -16527.561256  10133.951604 -22355.792809     -2.442274
PE26  21486.425703 -20129.885870  -3113.331749    235.253501
PE27  27898.208295   4053.602680   9046.371482   -160.857472
PE30  22708.323189  16192.318846  -9938.214021   -535.393070
PE31 -23020.057101 -15938.494563   9610.863933     -6.161705
PE33   7346.365152 -21618.530170 -18845.376312     -0.123344
PE34  -6684.380747  21458.654242  19246.166463    -69.398368
PE36 -21824.197812  19845.737203   2433.498568   -122.293908
PG01  10876.443373 -19811.359687 -14010.303834    164.568871
PG02  15559.541969 -20347.671049  -6161.001648   -548.759084
PG03   1219.825760 -15274.391827 -21852.472130   -111.017480
PG04   1236.610989 -25801.025990  -5884.007173    168.697939
PG05 -16595.976820   8101.993924  18942.408756   -144.395752
PG06 -20175.812785   1330.377186 -17208.757925    542.004324
PG07  -6104.835598 -14818.971536  21596.125577     55.290953
PG08   7153.146137 -20436.596884  15031.962130   -144.434402
PG09  -6506.480676 -25535.361954   3014.608078    -47.787907
PG10  24174.116925  11226.496673   2324.878004    -55.146529
PG11 -23196.740034  11234.408778  -6282.288236   -389.606023
PG12  -5668.411262  14208.673750 -21989.461728   -429.713354
PG13 -13057.866380  12498.368166  19188.764595    577.677292
PG14 -22322.664384 -13631.371365   5139.461805    197.883745
PG15  -4052.054478  21955.393108  13725.078303     81.745370
PG16  20982.037398  -1997.249762  16120.360868   -447.669415
PG17 -12683.856635 -15896.272327 -16585.119201    723.870949
PG18   7359.472324  13082.579961  21907.345594   -431.487672
PG19 -14696.199438  -7560.544161 -21062.875490    377.451118
PG20 -24213.061042   2552.914014  10423.220783    409.643898
PG21  17114.788522 -19292.422868  -3243.871877    147.998331
PG22 -23970.778477 -10883.246244  -1602.323429    113.395495
PG23  16630.360432  15803.514176  13543.386179     74.559034
PG24 -12809.918782  21355.456297  -8984.242976   -331.489739
PG25   9341.050611  17411.922423 -18189.894612    470.000836
PG26  25677.679759   2791.455197   6816.814463    226.269229
PG27  13407.878355  -8444.042014  20992.663179    -46.547499
PG28  19329.214294    269.864205 -18238.176495    -16.262736
PG29   4189.327221  25928.793171   3507.118453   -609.700952
PG30 -15259.258235  -7357.099692  20631.797639   -483.806998
PG31  23179.026258  -7592.707774 -11196.734403   -223.956724
PG32  14974.425039  11429.218249 -18623.767317   -564.665855
PJ02 -27163.821243  15710.106478 -23539.526126     -4.728509
PJ03 -27097.277757  31746.697823  -1334.162977     -3.711813
PJ04 -25826.400868  26436.870172  26209.705719     70.817018
PR01 -15753.245504 -19150.634057   5990.950952     66.569666
PR02 -14405.290079  -5631.429894  20298.129558    -22.400079
PR03  -5373.579210  11357.161052  22248.628847     86.048580
PR04   6365.896349  21595.161778  12032.175687    204.597582
PR05  14627.800228  20374.740318  -4725.896672    119.721338
PR07   4851.551117 -11962.809807 -21956.723310     65.630812
PR08  -6616.458707 -21607.493152 -11743.500869    -72.699542
PR09  25435.816701  -1188.823489   -272.343016    144.651712
PR11   2009.965250 -10971.442536  22951.704590   -177.644476
PR12 -17833.821340  -7469.394163  16658.712002     31.760681
PR13 -25387.996360   -153.366356   2450.850414    -39.641008
PR14 -18248.599133   8309.068837 -15764.121962     25.331587
PR15   -589.546107  11060.321488 -22954.862084     85.829442
PR16  17635.133059   7331.540450 -16877.030614     19.114427
PR17 -14352.027403  20177.699700  -6010.003950     20.912128
PR18  -7135.069286  22123.188583  10566.535073    104.118543
PR19   2469.168280  14026.936375  21159.647935   -248.859440
PR20  14063.201501  -5483.569305  20563.290223   -100.777249
PR21  14273.440106 -20535.540066   5120.680937    -41.328192
PR22   7051.412135 -21733.902956 -11306.403525     86.163151
PR24 -14382.316584   6402.181784 -20042.888063    -26.073789
PR25  15323.372785 -19507.033306   6012.371066     30.804312
PR26  -6453.627349 -21462.422141 -12184.360851    -22.476147
EOF
